start=new Date('2021-09-20T00:00:00.000Z').valueOf();
sats=[{"OBJECT_NAME":"STARLINK-1289","RCS_SIZE":"LARGE","TLE_LINE2":"2 45391  53.0542 272.6109 0000827  76.9155 283.1927 15.06389665 83765","OBJECT_ID":"2020-019AH","PERIAPSIS":"546.673","SITE":"AFETR","BSTAR":"0.00004717800000","SEMIMAJOR_AXIS":"6925.380","RA_OF_ASC_NODE":"272.6109","OBJECT_TYPE":"PAYLOAD","NORAD_CAT_ID":"45391","MEAN_ANOMALY":"283.1927","MEAN_MOTION_DDOT":"0.0000000000000","GP_ID":"185055861","DECAY_DATE":null,"COUNTRY_CODE":"US","TLE_LINE1":"1 45391U 20019AH  21262.76640634  .00000421  00000-0  47178-4 0  9991","CLASSIFICATION_TYPE":"U","EPHEMERIS_TYPE":"0","REV_AT_EPOCH":"8376","PERIOD":"95.593","EPOCH":"2021-09-19T18:23:37.507776","TIME_SYSTEM":"UTC","FILE":"3120378","LAUNCH_DATE":"2020-03-18","APOAPSIS":"547.818","REF_FRAME":"TEME","MEAN_MOTION_DOT":"0.00000421","ELEMENT_SET_NO":"999","CENTER_NAME":"EARTH","ARG_OF_PERICENTER":"76.9155","INCLINATION":"53.0542","MEAN_ELEMENT_THEORY":"SGP4","ECCENTRICITY":"0.00008270","MEAN_MOTION":"15.06389665"},{"COUNTRY_CODE":"US","TLE_LINE1":"1 45392U 20019AJ  21262.50117072  .00002034  00000-0  15072-3 0  9998","CLASSIFICATION_TYPE":"U","EPHEMERIS_TYPE":"0","REV_AT_EPOCH":"8373","OBJECT_NAME":"STARLINK-1290","OBJECT_ID":"2020-019AJ","PERIAPSIS":"543.460","RCS_SIZE":"LARGE","TLE_LINE2":"2 45392  52.9929 271.1357 0000223 261.9623  98.1340 15.07574960 83733","SITE":"AFETR","RA_OF_ASC_NODE":"271.1357","SEMIMAJOR_AXIS":"6921.750","BSTAR":"0.00015072000000","OBJECT_TYPE":"PAYLOAD","NORAD_CAT_ID":"45392","MEAN_ANOMALY":"98.1340","DECAY_DATE":null,"GP_ID":"185023567","MEAN_MOTION_DDOT":"0.0000000000000","ELEMENT_SET_NO":"999","CENTER_NAME":"EARTH","ARG_OF_PERICENTER":"261.9623","MEAN_ELEMENT_THEORY":"SGP4","INCLINATION":"52.9929","ECCENTRICITY":"0.00002230","MEAN_MOTION":"15.07574960","EPOCH":"2021-09-19T12:01:41.150208","PERIOD":"95.518","TIME_SYSTEM":"UTC","FILE":"3120015","LAUNCH_DATE":"2020-03-18","APOAPSIS":"543.769","MEAN_MOTION_DOT":"0.00002034","REF_FRAME":"TEME"},{"ELEMENT_SET_NO":"999","ARG_OF_PERICENTER":"61.2848","CENTER_NAME":"EARTH","ECCENTRICITY":"0.00007900","MEAN_ELEMENT_THEORY":"SGP4","INCLINATION":"53.0535","MEAN_MOTION":"15.06402436","TIME_SYSTEM":"UTC","EPOCH":"2021-09-19T17:30:31.562208","PERIOD":"95.592","LAUNCH_DATE":"2020-03-18","FILE":"3120378","MEAN_MOTION_DOT":"0.00000765","REF_FRAME":"TEME","APOAPSIS":"547.753","COUNTRY_CODE":"US","TLE_LINE1":"1 45393U 20019AK  21262.72953197  .00000765  00000-0  70198-4 0  9999","CLASSIFICATION_TYPE":"U","REV_AT_EPOCH":"8379","EPHEMERIS_TYPE":"0","OBJECT_NAME":"STARLINK-1291","RA_OF_ASC_NODE":"272.7839","SITE":"AFETR","SEMIMAJOR_AXIS":"6925.341","BSTAR":"0.00007019800000","OBJECT_ID":"2020-019AK","PERIAPSIS":"546.659","TLE_LINE2":"2 45393  53.0535 272.7839 0000790  61.2848 298.8220 15.06402436 83799","RCS_SIZE":"LARGE","OBJECT_TYPE":"PAYLOAD","NORAD_CAT_ID":"45393","DECAY_DATE":null,"GP_ID":"185054360","MEAN_MOTION_DDOT":"0.0000000000000","MEAN_ANOMALY":"298.8220"},{"COUNTRY_CODE":"US","TLE_LINE1":"1 45394U 20019AL  21262.75902470  .00001005  00000-0  86392-4 0  9992","CLASSIFICATION_TYPE":"U","EPHEMERIS_TYPE":"0","REV_AT_EPOCH":"8377","OBJECT_NAME":"STARLINK-1292","TLE_LINE2":"2 45394  53.0540 272.6487 0001061  73.0185 287.0920 15.06385142 83770","RCS_SIZE":"LARGE","OBJECT_ID":"2020-019AL","PERIAPSIS":"546.524","SEMIMAJOR_AXIS":"6925.394","SITE":"AFETR","RA_OF_ASC_NODE":"272.6487","BSTAR":"0.00008639200000","OBJECT_TYPE":"PAYLOAD","NORAD_CAT_ID":"45394","MEAN_ANOMALY":"287.0920","GP_ID":"185055609","MEAN_MOTION_DDOT":"0.0000000000000","DECAY_DATE":null,"ELEMENT_SET_NO":"999","CENTER_NAME":"EARTH","ARG_OF_PERICENTER":"73.0185","INCLINATION":"53.0540","MEAN_ELEMENT_THEORY":"SGP4","ECCENTRICITY":"0.00010610","MEAN_MOTION":"15.06385142","PERIOD":"95.593","EPOCH":"2021-09-19T18:12:59.734080","TIME_SYSTEM":"UTC","FILE":"3120378","LAUNCH_DATE":"2020-03-18","APOAPSIS":"547.994","REF_FRAME":"TEME","MEAN_MOTION_DOT":"0.00001005"},{"SITE":"AFETR","BSTAR":"-0.00003633700000","SEMIMAJOR_AXIS":"6925.374","RA_OF_ASC_NODE":"272.8177","TLE_LINE2":"2 45395  53.0543 272.8177 0000549  74.2056 285.8994 15.06391705 83210","RCS_SIZE":"LARGE","PERIAPSIS":"546.859","OBJECT_ID":"2020-019AM","OBJECT_NAME":"STARLINK-1297","GP_ID":"185055362","MEAN_MOTION_DDOT":"0.0000000000000","DECAY_DATE":null,"MEAN_ANOMALY":"285.8994","NORAD_CAT_ID":"45395","OBJECT_TYPE":"PAYLOAD","TLE_LINE1":"1 45395U 20019AM  21262.72215661 -.00000822  00000-0 -36337-4 0  9991","COUNTRY_CODE":"US","REV_AT_EPOCH":"8321","EPHEMERIS_TYPE":"0","CLASSIFICATION_TYPE":"U","TIME_SYSTEM":"UTC","PERIOD":"95.593","EPOCH":"2021-09-19T17:19:54.331104","REF_FRAME":"TEME","MEAN_MOTION_DOT":"-0.00000822","APOAPSIS":"547.619","LAUNCH_DATE":"2020-03-18","FILE":"3120378","CENTER_NAME":"EARTH","ARG_OF_PERICENTER":"74.2056","ELEMENT_SET_NO":"999","MEAN_MOTION":"15.06391705","ECCENTRICITY":"0.00005490","INCLINATION":"53.0543","MEAN_ELEMENT_THEORY":"SGP4"},{"TLE_LINE1":"1 45396U 20019AN  21262.77008006  .00000602  00000-0  59307-4 0  9996","COUNTRY_CODE":"US","EPHEMERIS_TYPE":"0","REV_AT_EPOCH":"8375","CLASSIFICATION_TYPE":"U","OBJECT_ID":"2020-019AN","PERIAPSIS":"546.742","RCS_SIZE":"LARGE","TLE_LINE2":"2 45396  53.0533 272.5991 0000745  73.0461 287.0609 15.06385521 83751","BSTAR":"0.00005930700000","SITE":"AFETR","SEMIMAJOR_AXIS":"6925.393","RA_OF_ASC_NODE":"272.5991","OBJECT_NAME":"STARLINK-1303","MEAN_ANOMALY":"287.0609","DECAY_DATE":null,"MEAN_MOTION_DDOT":"0.0000000000000","GP_ID":"185054613","NORAD_CAT_ID":"45396","OBJECT_TYPE":"PAYLOAD","ARG_OF_PERICENTER":"73.0461","CENTER_NAME":"EARTH","ELEMENT_SET_NO":"999","MEAN_MOTION":"15.06385521","MEAN_ELEMENT_THEORY":"SGP4","INCLINATION":"53.0533","ECCENTRICITY":"0.00007450","EPOCH":"2021-09-19T18:28:54.917184","PERIOD":"95.593","TIME_SYSTEM":"UTC","APOAPSIS":"547.774","MEAN_MOTION_DOT":"0.00000602","REF_FRAME":"TEME","FILE":"3120378","LAUNCH_DATE":"2020-03-18"},{"COUNTRY_CODE":"US","TLE_LINE1":"1 45397U 20019AP  21262.44940641  .00000885  00000-0  78259-4 0  9991","CLASSIFICATION_TYPE":"U","REV_AT_EPOCH":"8381","EPHEMERIS_TYPE":"0","OBJECT_NAME":"STARLINK-1307","SEMIMAJOR_AXIS":"6925.353","SITE":"AFETR","BSTAR":"0.00007825900000","RA_OF_ASC_NODE":"274.0406","PERIAPSIS":"546.728","OBJECT_ID":"2020-019AP","RCS_SIZE":"LARGE","TLE_LINE2":"2 45397  53.0531 274.0406 0000707  61.3181 298.7879 15.06398656 83813","NORAD_CAT_ID":"45397","OBJECT_TYPE":"PAYLOAD","DECAY_DATE":null,"GP_ID":"185024319","MEAN_MOTION_DDOT":"0.0000000000000","MEAN_ANOMALY":"298.7879","ELEMENT_SET_NO":"999","CENTER_NAME":"EARTH","ARG_OF_PERICENTER":"61.3181","ECCENTRICITY":"0.00007070","MEAN_ELEMENT_THEORY":"SGP4","INCLINATION":"53.0531","MEAN_MOTION":"15.06398656","TIME_SYSTEM":"UTC","EPOCH":"2021-09-19T10:47:08.713824","PERIOD":"95.592","LAUNCH_DATE":"2020-03-18","FILE":"3120015","MEAN_MOTION_DOT":"0.00000885","REF_FRAME":"TEME","APOAPSIS":"547.707"},{"CLASSIFICATION_TYPE":"U","EPHEMERIS_TYPE":"0","REV_AT_EPOCH":"8372","COUNTRY_CODE":"US","TLE_LINE1":"1 45398U 20019AQ  21262.30933083  .00000667  00000-0  63636-4 0  9990","OBJECT_TYPE":"PAYLOAD","NORAD_CAT_ID":"45398","MEAN_ANOMALY":"299.4327","DECAY_DATE":null,"GP_ID":"185024070","MEAN_MOTION_DDOT":"0.0000000000000","OBJECT_NAME":"STARLINK-1312","PERIAPSIS":"546.604","OBJECT_ID":"2020-019AQ","RCS_SIZE":"LARGE","TLE_LINE2":"2 45398  53.0532 274.6666 0000877  60.6749 299.4327 15.06400786 83723","SITE":"AFETR","RA_OF_ASC_NODE":"274.6666","SEMIMAJOR_AXIS":"6925.346","BSTAR":"0.00006363600000","MEAN_ELEMENT_THEORY":"SGP4","INCLINATION":"53.0532","ECCENTRICITY":"0.00008770","MEAN_MOTION":"15.06400786","ELEMENT_SET_NO":"999","ARG_OF_PERICENTER":"60.6749","CENTER_NAME":"EARTH","FILE":"3120015","LAUNCH_DATE":"2020-03-18","APOAPSIS":"547.819","MEAN_MOTION_DOT":"0.00000667","REF_FRAME":"TEME","EPOCH":"2021-09-19T07:25:26.183712","PERIOD":"95.592","TIME_SYSTEM":"UTC"},{"TLE_LINE1":"1 45399U 20019AR  21262.41714370  .00000741  00000-0  68629-4 0  9999","COUNTRY_CODE":"US","REV_AT_EPOCH":"8393","EPHEMERIS_TYPE":"0","CLASSIFICATION_TYPE":"U","SITE":"AFETR","SEMIMAJOR_AXIS":"6925.373","RA_OF_ASC_NODE":"264.1836","BSTAR":"0.00006862900000","TLE_LINE2":"2 45399  53.0532 264.1836 0001367  58.9834 301.1290 15.06391975 83939","RCS_SIZE":"LARGE","OBJECT_ID":"2020-019AR","PERIAPSIS":"546.291","OBJECT_NAME":"STARLINK-1255","GP_ID":"185022818","MEAN_MOTION_DDOT":"0.0000000000000","DECAY_DATE":null,"MEAN_ANOMALY":"301.1290","OBJECT_TYPE":"PAYLOAD","NORAD_CAT_ID":"45399","CENTER_NAME":"EARTH","ARG_OF_PERICENTER":"58.9834","ELEMENT_SET_NO":"999","MEAN_MOTION":"15.06391975","ECCENTRICITY":"0.00013670","INCLINATION":"53.0532","MEAN_ELEMENT_THEORY":"SGP4","TIME_SYSTEM":"UTC","PERIOD":"95.593","EPOCH":"2021-09-19T10:00:41.215680","REF_FRAME":"TEME","MEAN_MOTION_DOT":"0.00000741","APOAPSIS":"548.185","LAUNCH_DATE":"2020-03-18","FILE":"3120015"},{"ECCENTRICITY":"0.00006050","MEAN_ELEMENT_THEORY":"SGP4","INCLINATION":"53.0539","MEAN_MOTION":"15.06392709","ELEMENT_SET_NO":"999","CENTER_NAME":"EARTH","ARG_OF_PERICENTER":"56.1977","LAUNCH_DATE":"2020-03-18","FILE":"3120378","MEAN_MOTION_DOT":"-0.00000928","REF_FRAME":"TEME","APOAPSIS":"547.655","TIME_SYSTEM":"UTC","EPOCH":"2021-09-19T16:44:04.475328","PERIOD":"95.593","CLASSIFICATION_TYPE":"U","REV_AT_EPOCH":"8390","EPHEMERIS_TYPE":"0","COUNTRY_CODE":"US","TLE_LINE1":"1 45400U 20019AS  21262.69727402 -.00000928  00000-0 -43422-4 0  9995","NORAD_CAT_ID":"45400","OBJECT_TYPE":"PAYLOAD","DECAY_DATE":null,"GP_ID":"185054114","MEAN_MOTION_DDOT":"0.0000000000000","MEAN_ANOMALY":"303.9069","OBJECT_NAME":"STARLINK-1213","BSTAR":"-0.00004342200000","SITE":"AFETR","SEMIMAJOR_AXIS":"6925.371","RA_OF_ASC_NODE":"262.9272","OBJECT_ID":"2020-019AS","PERIAPSIS":"546.817","TLE_LINE2":"2 45400  53.0539 262.9272 0000605  56.1977 303.9069 15.06392709 83908","RCS_SIZE":"LARGE"}];
